{"type": "FeatureCollection", "features": [ {"type": "Feature", "properties": {"norad_id": 36046, "name": "COSMOS 2251 DEB", "group": "cosmos-2251-debris", "lat": 13.044853477847495, "lon": 86.51098360762468, "alt_km": 690.7071610595067, "timestamp": "2025-12-15T22:44:29.327336+00:00", "meta": {"OBJECT_NAME": "COSMOS 2251 DEB", "OBJECT_ID": "1993-036AXH", "EPOCH": "2025-12-14T01:49:52.563648", "MEAN_MOTION": 14.65281865, "ECCENTRICITY": 0.00556177, "INCLINATION": 74.0167, "RA_OF_ASC_NODE": 273.9225, "ARG_OF_PERICENTER": 59.51, "MEAN_ANOMALY": 319.3065, "EPHEMERIS_TYPE": 0, "CLASSIFICATION_TYPE": "U", "NORAD_CAT_ID": 36046, "ELEMENT_SET_NO": 999, "REV_AT_EPOCH": 64023, "BSTAR": 0.00073234534, "MEAN_MOTION_DOT": 4.01e-05, "MEAN_MOTION_DDOT": 0}, "tle": {"line1": "1 36046U 93036AXH 25348.07630282  .00004010  00000+0  73235-3 0  9997", "line2": "2 36046  74.0167 273.9225 0055617  59.5100 319.3065 14.65281865640238"}}, "geometry": {"type": "Point", "coordinates": [86.51098360762468, 13.044853477847495]}}, {"type": "Feature", "properties": {"norad_id": 36047, "name": "COSMOS 2251 DEB", "group": "cosmos-2251-debris", "lat": 73.8572567880069, "lon": 66.17289427790735, "alt_km": 572.318608583968, "timestamp": "2025-12-15T22:44:29.327346+00:00", "meta": {"OBJECT_NAME": "COSMOS 2251 DEB", "OBJECT_ID": "1993-036AXJ", "EPOCH": "2025-12-14T22:15:27.613152", "MEAN_MOTION": 14.96069121, "ECCENTRICITY": 0.00083362, "INCLINATION": 74.0356, "RA_OF_ASC_NODE": 329.7384, "ARG_OF_PERICENTER": 357.0105, "MEAN_ANOMALY": 3.1028, "EPHEMERIS_TYPE": 0, "CLASSIFICATION_TYPE": "U", "NORAD_CAT_ID": 36047, "ELEMENT_SET_NO": 999, "REV_AT_EPOCH": 65972, "BSTAR": 0.0012898092, "MEAN_MOTION_DOT": 0.00014498, "MEAN_MOTION_DDOT": 0}, "tle": {"line1": "1 36047U 93036AXJ 25348.92740293  .00014498  00000+0  12898-2 0  9994", "line2": "2 36047  74.0356 329.7384 0008336 357.0105   3.1028 14.96069121659726"}}, "geometry": {"type": "Point", "coordinates": [66.17289427790735, 73.8572567880069]}}, {"type": "Feature", "properties": {"norad_id": 36048, "name": "COSMOS 2251 DEB", "group": "cosmos-2251-debris", "lat": 65.02953776678078, "lon": -28.745986711240693, "alt_km": 758.1188582265295, "timestamp": "2025-12-15T22:44:29.327357+00:00", "meta": {"OBJECT_NAME": "COSMOS 2251 DEB", "OBJECT_ID": "1993-036AXK", "EPOCH": "2025-12-14T19:49:30.529920", "MEAN_MOTION": 14.37856281, "ECCENTRICITY": 0.00267154, "INCLINATION": 74.057, "RA_OF_ASC_NODE": 295.4478, "ARG_OF_PERICENTER": 345.0601, "MEAN_ANOMALY": 42.267, "EPHEMERIS_TYPE": 0, "CLASSIFICATION_TYPE": "U", "NORAD_CAT_ID": 36048, "ELEMENT_SET_NO": 999, "REV_AT_EPOCH": 85532, "BSTAR": 0.000348713, "MEAN_MOTION_DOT": 1.03e-05, "MEAN_MOTION_DDOT": 0}, "tle": {"line1": "1 36048U 93036AXK 25348.82604780  .00001030  00000+0  34871-3 0  9998", "line2": "2 36048  74.0570 295.4478 0026715 345.0601  42.2670 14.37856281855324"}}, "geometry": {"type": "Point", "coordinates": [-28.745986711240693, 65.02953776678078]}}, {"type": "Feature", "properties": {"norad_id": 36049, "name": "COSMOS 2251 DEB", "group": "cosmos-2251-debris", "lat": 72.69616270523089, "lon": -133.77526657324017, "alt_km": 680.4326974600617, "timestamp": "2025-12-15T22:44:29.327367+00:00", "meta": {"OBJECT_NAME": "COSMOS 2251 DEB", "OBJECT_ID": "1993-036AXL", "EPOCH": "2025-12-14T15:06:03.977280", "MEAN_MOTION": 14.62178283, "ECCENTRICITY": 0.00106433, "INCLINATION": 74.0297, "RA_OF_ASC_NODE": 115.562, "ARG_OF_PERICENTER": 202.4764, "MEAN_ANOMALY": 157.5938, "EPHEMERIS_TYPE": 0, "CLASSIFICATION_TYPE": "U", "NORAD_CAT_ID": 36049, "ELEMENT_SET_NO": 999, "REV_AT_EPOCH": 85392, "BSTAR": 0.0012373854, "MEAN_MOTION_DOT": 6.209e-05, "MEAN_MOTION_DDOT": 0}, "tle": {"line1": "1 36049U 93036AXL 25348.62921270  .00006209  00000+0  12374-2 0  9999", "line2": "2 36049  74.0297 115.5620 0010643 202.4764 157.5938 14.62178283853929"}}, "geometry": {"type": "Point", "coordinates": [-133.77526657324017, 72.69616270523089]}}, {"type": "Feature", "properties": {"norad_id": 36050, "name": "COSMOS 2251 DEB", "group": "cosmos-2251-debris", "lat": -69.2519907492698, "lon": 56.59837335308761, "alt_km": 509.748785454447, "timestamp": "2025-12-15T22:44:29.327377+00:00", "meta": {"OBJECT_NAME": "COSMOS 2251 DEB", "OBJECT_ID": "1993-036AXM", "EPOCH": "2025-12-15T07:12:03.525120", "MEAN_MOTION": 15.01072895, "ECCENTRICITY": 0.00887518, "INCLINATION": 74.0304, "RA_OF_ASC_NODE": 188.8096, "ARG_OF_PERICENTER": 267.8279, "MEAN_ANOMALY": 91.2743, "EPHEMERIS_TYPE": 0, "CLASSIFICATION_TYPE": "U", "NORAD_CAT_ID": 36050, "ELEMENT_SET_NO": 999, "REV_AT_EPOCH": 67073, "BSTAR": 0.00038158285, "MEAN_MOTION_DOT": 5.267e-05, "MEAN_MOTION_DDOT": 0}, "tle": {"line1": "1 36050U 93036AXM 25349.30004080  .00005267  00000+0  38158-3 0  9990", "line2": "2 36050  74.0304 188.8096 0088751 267.8279  91.2743 15.01072895670731"}}, "geometry": {"type": "Point", "coordinates": [56.59837335308761, -69.2519907492698]}}, {"type": "Feature", "properties": {"norad_id": 36053, "name": "COSMOS 2251 DEB", "group": "cosmos-2251-debris", "lat": 16.557718920262417, "lon": 151.4662364467707, "alt_km": 697.2492834481463, "timestamp": "2025-12-15T22:44:29.327387+00:00", "meta": {"OBJECT_NAME": "COSMOS 2251 DEB", "OBJECT_ID": "1993-036AXQ", "EPOCH": "2025-12-14T10:24:52.276896", "MEAN_MOTION": 14.57209114, "ECCENTRICITY": 0.00325891, "INCLINATION": 73.8698, "RA_OF_ASC_NODE": 149.4338, "ARG_OF_PERICENTER": 97.9449, "MEAN_ANOMALY": 262.5415, "EPHEMERIS_TYPE": 0, "CLASSIFICATION_TYPE": "U", "NORAD_CAT_ID": 36053, "ELEMENT_SET_NO": 999, "REV_AT_EPOCH": 87469, "BSTAR": 0.0016910413, "MEAN_MOTION_DOT": 7.671e-05, "MEAN_MOTION_DDOT": 0}, "tle": {"line1": "1 36053U 93036AXQ 25348.43393839  .00007671  00000+0  16910-2 0  9991", "line2": "2 36053  73.8698 149.4338 0032589  97.9449 262.5415 14.57209114874694"}}, "geometry": {"type": "Point", "coordinates": [151.4662364467707, 16.557718920262417]}}, {"type": "Feature", "properties": {"norad_id": 36058, "name": "COSMOS 2251 DEB", "group": "cosmos-2251-debris", "lat": 17.73875184487309, "lon": -157.9109985479075, "alt_km": 665.9204273671348, "timestamp": "2025-12-15T22:44:29.327514+00:00", "meta": {"OBJECT_NAME": "COSMOS 2251 DEB", "OBJECT_ID": "1993-036AXV", "EPOCH": "2025-12-13T20:37:32.134944", "MEAN_MOTION": 14.58701231, "ECCENTRICITY": 0.00444905, "INCLINATION": 74.0239, "RA_OF_ASC_NODE": 31.3248, "ARG_OF_PERICENTER": 165.3965, "MEAN_ANOMALY": 194.8498, "EPHEMERIS_TYPE": 0, "CLASSIFICATION_TYPE": "U", "NORAD_CAT_ID": 36058, "ELEMENT_SET_NO": 999, "REV_AT_EPOCH": 66127, "BSTAR": 0.00064390107, "MEAN_MOTION_DOT": 3.016e-05, "MEAN_MOTION_DDOT": 0}, "tle": {"line1": "1 36058U 93036AXV 25347.85939971  .00003016  00000+0  64390-3 0  9999", "line2": "2 36058  74.0239  31.3248 0044490 165.3965 194.8498 14.58701231661273"}}, "geometry": {"type": "Point", "coordinates": [-157.9109985479075, 17.73875184487309]}}, {"type": "Feature", "properties": {"norad_id": 36060, "name": "COSMOS 2251 DEB", "group": "cosmos-2251-debris", "lat": -48.64250032248838, "lon": 67.60373367033944, "alt_km": 759.0980673793747, "timestamp": "2025-12-15T22:44:29.327527+00:00", "meta": {"OBJECT_NAME": "COSMOS 2251 DEB", "OBJECT_ID": "1993-036AXX", "EPOCH": "2025-12-15T08:21:03.672288", "MEAN_MOTION": 14.42005559, "ECCENTRICITY": 0.00153723, "INCLINATION": 74.0285, "RA_OF_ASC_NODE": 229.7294, "ARG_OF_PERICENTER": 326.3901, "MEAN_ANOMALY": 33.6278, "EPHEMERIS_TYPE": 0, "CLASSIFICATION_TYPE": "U", "NORAD_CAT_ID": 36060, "ELEMENT_SET_NO": 999, "REV_AT_EPOCH": 85047, "BSTAR": 0.00032938316, "MEAN_MOTION_DOT": 1.056e-05, "MEAN_MOTION_DDOT": 0}, "tle": {"line1": "1 36060U 93036AXX 25349.34795917  .00001056  00000+0  32938-3 0  9993", "line2": "2 36060  74.0285 229.7294 0015372 326.3901  33.6278 14.42005559850478"}}, "geometry": {"type": "Point", "coordinates": [67.60373367033944, -48.64250032248838]}}, {"type": "Feature", "properties": {"norad_id": 36061, "name": "COSMOS 2251 DEB", "group": "cosmos-2251-debris", "lat": -41.15150336905055, "lon": -20.60936116196263, "alt_km": 800.2051718828825, "timestamp": "2025-12-15T22:44:29.327537+00:00", "meta": {"OBJECT_NAME": "COSMOS 2251 DEB", "OBJECT_ID": "1993-036AXY", "EPOCH": "2025-12-14T18:28:25.943808", "MEAN_MOTION": 14.33711933, "ECCENTRICITY": 0.003679, "INCLINATION": 74.0242, "RA_OF_ASC_NODE": 356.0444, "ARG_OF_PERICENTER": 83.3276, "MEAN_ANOMALY": 277.2061, "EPHEMERIS_TYPE": 0, "CLASSIFICATION_TYPE": "U", "NORAD_CAT_ID": 36061, "ELEMENT_SET_NO": 999, "REV_AT_EPOCH": 65133, "BSTAR": 0.0003323683, "MEAN_MOTION_DOT": 9.04e-06, "MEAN_MOTION_DDOT": 0}, "tle": {"line1": "1 36061U 93036AXY 25348.76974472  .00000904  00000+0  33237-3 0  9998", "line2": "2 36061  74.0242 356.0444 0036790  83.3276 277.2061 14.33711933651335"}}, "geometry": {"type": "Point", "coordinates": [-20.60936116196263, -41.15150336905055]}}, {"type": "Feature", "properties": {"norad_id": 36073, "name": "COSMOS 2251 DEB", "group": "cosmos-2251-debris", "lat": 63.18805722359881, "lon": -8.811979479650496, "alt_km": 756.440743314568, "timestamp": "2025-12-15T22:44:29.327547+00:00", "meta": {"OBJECT_NAME": "COSMOS 2251 DEB", "OBJECT_ID": "1993-036AYL", "EPOCH": "2025-12-14T06:16:10.983072", "MEAN_MOTION": 14.34955439, "ECCENTRICITY": 0.00239275, "INCLINATION": 74.0321, "RA_OF_ASC_NODE": 319.7693, "ARG_OF_PERICENTER": 27.306, "MEAN_ANOMALY": 332.9344, "EPHEMERIS_TYPE": 0, "CLASSIFICATION_TYPE": "U", "NORAD_CAT_ID": 36073, "ELEMENT_SET_NO": 999, "REV_AT_EPOCH": 70229, "BSTAR": 0.0003171948, "MEAN_MOTION_DOT": 8.79e-06, "MEAN_MOTION_DDOT": 0}, "tle": {"line1": "1 36073U 93036AYL 25348.26123823  .00000879  00000+0  31719-3 0  9996", "line2": "2 36073  74.0321 319.7693 0023927  27.3060 332.9344 14.34955439702292"}}, "geometry": {"type": "Point", "coordinates": [-8.811979479650496, 63.18805722359881]}}]}